{"type": "FeatureCollection", "features": [ {"type": "Feature", "properties": {"norad_id": 66936, "name": "STARLINK-36160", "group": "last-30-days", "lat": 34.012916093872484, "lon": 175.7053704547888, "alt_km": 309.8321707221148, "timestamp": "2025-12-17T13:48:36.281666+00:00", "meta": {"OBJECT_NAME": "STARLINK-36160", "OBJECT_ID": "2025-286M", "EPOCH": "2025-12-17T06:00:00.999648", "MEAN_MOTION": 15.86639685, "ECCENTRICITY": 8.678e-05, "INCLINATION": 53.1568, "RA_OF_ASC_NODE": 27.7479, "ARG_OF_PERICENTER": 80.5948, "MEAN_ANOMALY": 355.766, "EPHEMERIS_TYPE": 0, "CLASSIFICATION_TYPE": "U", "NORAD_CAT_ID": 66936, "ELEMENT_SET_NO": 999, "REV_AT_EPOCH": 271, "BSTAR": -0.0060671397, "MEAN_MOTION_DOT": -0.01378849, "MEAN_MOTION_DDOT": 0}, "tle": {"line1": "1 66936U 25286M   25351.25001157 -.01378849  00000+0 -60671-2 0  9993", "line2": "2 66936  53.1568  27.7479 0000867  80.5948 355.7660 15.86639685  2710"}}, "geometry": {"type": "Point", "coordinates": [175.7053704547888, 34.012916093872484]}}, {"type": "Feature", "properties": {"norad_id": 66937, "name": "STARLINK-36165", "group": "last-30-days", "lat": 32.53956505496377, "lon": 177.51677193278317, "alt_km": 310.06403435656193, "timestamp": "2025-12-17T13:48:36.281676+00:00", "meta": {"OBJECT_NAME": "STARLINK-36165", "OBJECT_ID": "2025-286N", "EPOCH": "2025-12-17T06:00:00.999648", "MEAN_MOTION": 15.86664144, "ECCENTRICITY": 9.146e-05, "INCLINATION": 53.1568, "RA_OF_ASC_NODE": 27.7432, "ARG_OF_PERICENTER": 77.3752, "MEAN_ANOMALY": 1.0739, "EPHEMERIS_TYPE": 0, "CLASSIFICATION_TYPE": "U", "NORAD_CAT_ID": 66937, "ELEMENT_SET_NO": 999, "REV_AT_EPOCH": 271, "BSTAR": -0.0061122006, "MEAN_MOTION_DOT": -0.01389273, "MEAN_MOTION_DDOT": 0}, "tle": {"line1": "1 66937U 25286N   25351.25001157 -.01389273  00000+0 -61122-2 0  9999", "line2": "2 66937  53.1568  27.7432 0000914  77.3752   1.0739 15.86664144  2716"}}, "geometry": {"type": "Point", "coordinates": [177.51677193278317, 32.53956505496377]}}, {"type": "Feature", "properties": {"norad_id": 66938, "name": "STARLINK-36155", "group": "last-30-days", "lat": 31.036185729662296, "lon": 179.27448052831616, "alt_km": 310.19625028927294, "timestamp": "2025-12-17T13:48:36.281685+00:00", "meta": {"OBJECT_NAME": "STARLINK-36155", "OBJECT_ID": "2025-286P", "EPOCH": "2025-12-17T06:00:00.999648", "MEAN_MOTION": 15.86689979, "ECCENTRICITY": 8.142e-05, "INCLINATION": 53.1566, "RA_OF_ASC_NODE": 27.7387, "ARG_OF_PERICENTER": 89.0923, "MEAN_ANOMALY": 351.4522, "EPHEMERIS_TYPE": 0, "CLASSIFICATION_TYPE": "U", "NORAD_CAT_ID": 66938, "ELEMENT_SET_NO": 999, "REV_AT_EPOCH": 271, "BSTAR": -0.006147148, "MEAN_MOTION_DOT": -0.01397674, "MEAN_MOTION_DDOT": 0}, "tle": {"line1": "1 66938U 25286P   25351.25001157 -.01397674  00000+0 -61471-2 0  9991", "line2": "2 66938  53.1566  27.7387 0000814  89.0923 351.4522 15.86689979  2718"}}, "geometry": {"type": "Point", "coordinates": [179.27448052831616, 31.036185729662296]}}, {"type": "Feature", "properties": {"norad_id": 66939, "name": "STARLINK-36154", "group": "last-30-days", "lat": 27.732850781862165, "lon": -177.13207415756187, "alt_km": 310.77907870429044, "timestamp": "2025-12-17T13:48:36.281695+00:00", "meta": {"OBJECT_NAME": "STARLINK-36154", "OBJECT_ID": "2025-286Q", "EPOCH": "2025-12-17T06:00:00.999648", "MEAN_MOTION": 15.86727941, "ECCENTRICITY": 9.257e-05, "INCLINATION": 53.1566, "RA_OF_ASC_NODE": 27.7295, "ARG_OF_PERICENTER": 79.2719, "MEAN_ANOMALY": 5.7859, "EPHEMERIS_TYPE": 0, "CLASSIFICATION_TYPE": "U", "NORAD_CAT_ID": 66939, "ELEMENT_SET_NO": 999, "REV_AT_EPOCH": 271, "BSTAR": -0.0062314098, "MEAN_MOTION_DOT": -0.01416708, "MEAN_MOTION_DDOT": 0}, "tle": {"line1": "1 66939U 25286Q   25351.25001157 -.01416708  00000+0 -62314-2 0  9999", "line2": "2 66939  53.1566  27.7295 0000925  79.2719   5.7859 15.86727941  2718"}}, "geometry": {"type": "Point", "coordinates": [-177.13207415756187, 27.732850781862165]}}, {"type": "Feature", "properties": {"norad_id": 66940, "name": "STARLINK-36121", "group": "last-30-days", "lat": 26.217566540391726, "lon": -175.5889954298973, "alt_km": 310.96830166326254, "timestamp": "2025-12-17T13:48:36.281704+00:00", "meta": {"OBJECT_NAME": "STARLINK-36121", "OBJECT_ID": "2025-286R", "EPOCH": "2025-12-17T06:00:00.999648", "MEAN_MOTION": 15.86749865, "ECCENTRICITY": 8.275e-05, "INCLINATION": 53.1563, "RA_OF_ASC_NODE": 27.7249, "ARG_OF_PERICENTER": 83.628, "MEAN_ANOMALY": 3.452, "EPHEMERIS_TYPE": 0, "CLASSIFICATION_TYPE": "U", "NORAD_CAT_ID": 66940, "ELEMENT_SET_NO": 999, "REV_AT_EPOCH": 271, "BSTAR": -0.0062239113, "MEAN_MOTION_DOT": -0.01416494, "MEAN_MOTION_DDOT": 0}, "tle": {"line1": "1 66940U 25286R   25351.25001157 -.01416494  00000+0 -62239-2 0  9999", "line2": "2 66940  53.1563  27.7249 0000827  83.6280   3.4520 15.86749865  2718"}}, "geometry": {"type": "Point", "coordinates": [-175.5889954298973, 26.217566540391726]}}, {"type": "Feature", "properties": {"norad_id": 66941, "name": "STARLINK-36088", "group": "last-30-days", "lat": 29.296053459394674, "lon": -178.79077478151757, "alt_km": 310.5492394839548, "timestamp": "2025-12-17T13:48:36.281713+00:00", "meta": {"OBJECT_NAME": "STARLINK-36088", "OBJECT_ID": "2025-286S", "EPOCH": "2025-12-17T06:00:00.999648", "MEAN_MOTION": 15.86705674, "ECCENTRICITY": 9.312e-05, "INCLINATION": 53.1565, "RA_OF_ASC_NODE": 27.7335, "ARG_OF_PERICENTER": 78.9204, "MEAN_ANOMALY": 4.0231, "EPHEMERIS_TYPE": 0, "CLASSIFICATION_TYPE": "U", "NORAD_CAT_ID": 66941, "ELEMENT_SET_NO": 999, "REV_AT_EPOCH": 271, "BSTAR": -0.0062041589, "MEAN_MOTION_DOT": -0.01409977, "MEAN_MOTION_DDOT": 0}, "tle": {"line1": "1 66941U 25286S   25351.25001157 -.01409977  00000+0 -62042-2 0  9990", "line2": "2 66941  53.1565  27.7335 0000931  78.9204   4.0231 15.86705674  2712"}}, "geometry": {"type": "Point", "coordinates": [-178.79077478151757, 29.296053459394674]}}, {"type": "Feature", "properties": {"norad_id": 66942, "name": "STARLINK-36100", "group": "last-30-days", "lat": 24.62214357100637, "lon": -174.02365627943084, "alt_km": 311.13114865655916, "timestamp": "2025-12-17T13:48:36.281723+00:00", "meta": {"OBJECT_NAME": "STARLINK-36100", "OBJECT_ID": "2025-286T", "EPOCH": "2025-12-17T06:00:00.999648", "MEAN_MOTION": 15.86771248, "ECCENTRICITY": 7.504e-05, "INCLINATION": 53.1562, "RA_OF_ASC_NODE": 27.7205, "ARG_OF_PERICENTER": 93.3992, "MEAN_ANOMALY": 355.7917, "EPHEMERIS_TYPE": 0, "CLASSIFICATION_TYPE": "U", "NORAD_CAT_ID": 66942, "ELEMENT_SET_NO": 999, "REV_AT_EPOCH": 264, "BSTAR": -0.0062425434, "MEAN_MOTION_DOT": -0.01421426, "MEAN_MOTION_DDOT": 0}, "tle": {"line1": "1 66942U 25286T   25351.25001157 -.01421426  00000+0 -62425-2 0  9999", "line2": "2 66942  53.1562  27.7205 0000750  93.3992 355.7917 15.86771248  2649"}}, "geometry": {"type": "Point", "coordinates": [-174.02365627943084, 24.62214357100637]}}, {"type": "Feature", "properties": {"norad_id": 66943, "name": "STARLINK-36109", "group": "last-30-days", "lat": 22.761314888819573, "lon": -172.2664197169975, "alt_km": 311.48110684455787, "timestamp": "2025-12-17T13:48:36.281734+00:00", "meta": {"OBJECT_NAME": "STARLINK-36109", "OBJECT_ID": "2025-286U", "EPOCH": "2025-12-17T06:00:00.999648", "MEAN_MOTION": 15.867854, "ECCENTRICITY": 7.923e-05, "INCLINATION": 53.156, "RA_OF_ASC_NODE": 27.7154, "ARG_OF_PERICENTER": 87.4857, "MEAN_ANOMALY": 4.153, "EPHEMERIS_TYPE": 0, "CLASSIFICATION_TYPE": "U", "NORAD_CAT_ID": 66943, "ELEMENT_SET_NO": 999, "REV_AT_EPOCH": 264, "BSTAR": -0.0062891038, "MEAN_MOTION_DOT": -0.01431513, "MEAN_MOTION_DDOT": 0}, "tle": {"line1": "1 66943U 25286U   25351.25001157 -.01431513  00000+0 -62891-2 0  9995", "line2": "2 66943  53.1560  27.7154 0000792  87.4857   4.1530 15.86785400  2642"}}, "geometry": {"type": "Point", "coordinates": [-172.2664197169975, 22.761314888819573]}}, {"type": "Feature", "properties": {"norad_id": 66944, "name": "STARLINK-36112", "group": "last-30-days", "lat": 21.207977977680684, "lon": -170.84920163412116, "alt_km": 311.74948964119994, "timestamp": "2025-12-17T13:48:36.281744+00:00", "meta": {"OBJECT_NAME": "STARLINK-36112", "OBJECT_ID": "2025-286V", "EPOCH": "2025-12-17T06:00:00.999648", "MEAN_MOTION": 15.86809617, "ECCENTRICITY": 8.704e-05, "INCLINATION": 53.1561, "RA_OF_ASC_NODE": 27.7111, "ARG_OF_PERICENTER": 81.306, "MEAN_ANOMALY": 12.3421, "EPHEMERIS_TYPE": 0, "CLASSIFICATION_TYPE": "U", "NORAD_CAT_ID": 66944, "ELEMENT_SET_NO": 999, "REV_AT_EPOCH": 271, "BSTAR": -0.0063211599, "MEAN_MOTION_DOT": -0.01439386, "MEAN_MOTION_DDOT": 0}, "tle": {"line1": "1 66944U 25286V   25351.25001157 -.01439386  00000+0 -63212-2 0  9990", "line2": "2 66944  53.1561  27.7111 0000870  81.3060  12.3421 15.86809617  2718"}}, "geometry": {"type": "Point", "coordinates": [-170.84920163412116, 21.207977977680684]}}, {"type": "Feature", "properties": {"norad_id": 66945, "name": "STARLINK-36110", "group": "last-30-days", "lat": 19.35552444066609, "lon": -169.21105097337633, "alt_km": 312.02390644832394, "timestamp": "2025-12-17T13:48:36.281753+00:00", "meta": {"OBJECT_NAME": "STARLINK-36110", "OBJECT_ID": "2025-286W", "EPOCH": "2025-12-17T06:00:00.999648", "MEAN_MOTION": 15.86828596, "ECCENTRICITY": 8.505e-05, "INCLINATION": 53.1559, "RA_OF_ASC_NODE": 27.706, "ARG_OF_PERICENTER": 83.7098, "MEAN_ANOMALY": 12.3298, "EPHEMERIS_TYPE": 0, "CLASSIFICATION_TYPE": "U", "NORAD_CAT_ID": 66945, "ELEMENT_SET_NO": 999, "REV_AT_EPOCH": 271, "BSTAR": -0.0063760565, "MEAN_MOTION_DOT": -0.01451353, "MEAN_MOTION_DDOT": 0}, "tle": {"line1": "1 66945U 25286W   25351.25001157 -.01451353  00000+0 -63761-2 0  9998", "line2": "2 66945  53.1559  27.7060 0000850  83.7098  12.3298 15.86828596  2713"}}, "geometry": {"type": "Point", "coordinates": [-169.21105097337633, 19.35552444066609]}}]}